BEIDOU G3               
1 36590U 10024A   17247.49145433 -.00000368  00000-0  00000-0 0  9992
2 36590   1.3967  27.1724 0005934 314.3669 289.6813  1.00277487 26615
BADR-5                  
1 36592U 10025A   17247.53313228  .00000130  00000-0  00000-0 0  9995
2 36592   0.0134 185.8254 0005117 344.6480  31.2874  1.00270393 21059
COMS 1                  
1 36744U 10032A   17247.57549323 -.00000358  00000-0  00000-0 0  9996
2 36744   0.0242 105.0048 0001061  79.3777 134.9057  1.00272748 18920
ARABSAT-5A              
1 36745U 10032B   17247.52827038  .00000139  00000-0  00000-0 0  9990
2 36745   0.0556  15.6209 0003039 151.4241  37.4375  1.00273295 26487
ECHOSTAR 15             
1 36792U 10034A   17247.43990546 -.00000295  00000-0  00000-0 0  9993
2 36792   0.0600 290.2607 0002137 236.2260 274.0005  1.00271491 26196
NILESAT 201             
1 36830U 10037A   17247.38865427 -.00000072  00000-0  00000-0 0  9995
2 36830   0.0471 198.3850 0005226 308.8330 329.3948  1.00271961 26124
RASCOM-QAF 1R           
1 36831U 10037B   17247.03806297  .00000005  00000-0  00000-0 0  9993
2 36831   0.0315 122.1261 0003938  52.6848 185.1931  1.00271451 26145
CHINASAT 6A (ZX 6A)     
1 37150U 10042A   17247.62271389 -.00000368  00000-0  00000-0 0  9990
2 37150   0.0486 258.5118 0001104 278.5637 156.0932  1.00274529 25733
QZS-1 (MICHIBIKI)       
1 37158U 10045A   17247.48580253 -.00000211  00000-0  00000-0 0  9995
2 37158  40.8822 158.1785 0753820 270.6460 225.6018  1.00254943 25554
XM-5                    
1 37185U 10053A   17247.52545900 -.00000218  00000-0  00000-0 0  9996
2 37185   0.0219 155.3808 0001460 205.5439  86.8666  1.00268649 25280
BSAT-3B                 
1 37207U 10056B   17247.58496215 -.00000365  00000-0  00000-0 0  9997
2 37207   0.0996 295.9661 0001515 312.8738  55.5083  1.00272456 20080
BEIDOU G4               
1 37210U 10057A   17247.53404885 -.00000127  00000-0  00000-0 0  9995
2 37210   0.8322  50.3766 0006054 164.8077 120.8063  1.00270520 25122
SKYTERRA 1              
1 37218U 10061A   17247.24851551 -.00000129  00000-0  00000-0 0  9994
2 37218   3.1271 331.5657 0005941 180.4940 179.6483  1.00272381 25067
ZHONGXING-20A           
1 37234U 10064A   17247.45604672 -.00000352  00000-0  00000-0 0  9996
2 37234   0.0433 275.5708 0001233  23.5901 338.6397  1.00272708 24860
HYLAS 1                 
1 37237U 10065A   17247.39837623 -.00000247  00000-0  00000-0 0  9990
2 37237   0.0573 312.4286 0001809 206.4243 294.7974  1.00274005 24821
INTELSAT 17 (IS-17)     
1 37238U 10065B   17247.60462703 -.00000016  00000-0  00000-0 0  9992
2 37238   0.0374 237.5146 0002505 292.7535  97.3002  1.00272495 21264
EUTELSAT KA-SAT 9A      
1 37258U 10069A   17247.02124052  .00000048  00000-0  00000-0 0  9990
2 37258   0.0413 269.3253 0003277 267.5509 183.1317  1.00271666 24658
HISPASAT 1E             
1 37264U 10070A   17247.32632986 -.00000230  00000-0  00000-0 0  9996
2 37264   0.0240 131.2307 0005583  30.5011 269.4084  1.00272598 21019
KOREASAT 6              
1 37265U 10070B   17247.58032041 -.00000376  00000-0  00000-0 0  9992
2 37265   0.0269 130.4517 0002214  43.5465 134.8185  1.00267241 24615
INTELSAT NEW DAWN       
1 37392U 11016A   17247.52827038  .00000142  00000-0  00000-0 0  9996
2 37392   0.0276 221.6358 0000781 348.6479 356.5533  1.00273325 21146
YAHSAT 1A               
1 37393U 11016B   17247.58037626  .00000087  00000-0  00000-0 0  9997
2 37393   0.0203 133.8541 0002215  37.3818  74.0860  1.00272233 10249
TELSTAR 14R             
1 37602U 11021A   17247.50653698 -.00000294  00000-0  00000-0 0  9992
2 37602   0.0564 300.8406 0000238 302.7810 219.5347  1.00273007 23691
GSAT-8                  
1 37605U 11022A   17247.60452066  .00000071  00000-0  00000-0 0  9995
2 37605   0.0126 123.1268 0004468 128.2788   5.1967  1.00271877 21052
ST-2                    
1 37606U 11022B   17247.55972612 -.00000226  00000-0  00000-0 0  9997
2 37606   0.0078 127.7788 0001577  31.4192 114.1867  1.00273359 23103
CHINASAT 10 (ZX 10)     
1 37677U 11026A   17247.58582713 -.00000367  00000-0  00000-0 0  9997
2 37677   0.0572 277.6129 0004845 254.4491 133.2408  1.00274785 22807
TIANLIAN 1-02           
1 37737U 11032A   17247.47415301  .00000016  00000-0  00000-0 0  9997
2 37737   2.7480  77.1015 0005525 162.7974  91.3059  1.00272127 22557
GSAT-12                 
1 37746U 11034A   17247.56704723 -.00000180  00000-0  00000-0 0  9991
2 37746   0.0077 214.2914 0006371 248.8258 167.9306  1.00272202 11325
SES-3                   
1 37748U 11035A   17247.60840998 -.00000116  00000-0  00000-0 0  9993
2 37748   0.0570 295.8954 0002430 208.0969 315.9599  1.00271959 22456
KAZSAT-2                
1 37749U 11035B   17247.59490385 -.00000212  00000-0  00000-0 0  9990
2 37749   0.0112 188.9376 0001190 343.8997 111.7487  1.00273235 21232
ASTRA 1N                
1 37775U 11041A   17247.46782126  .00000105  00000-0  00000-0 0  9999
2 37775   0.0254 348.1201 0003034 123.1426  60.1271  1.00268652 12370
BSAT-3C (JCSAT-110R)    
1 37776U 11041B   17247.58561846 -.00000365  00000-0  00000-0 0  9996
2 37776   0.0527 286.7650 0000430 296.7554  81.1759  1.00271287 18339
PAKSAT-1R               
1 37779U 11042A   17247.52337559  .00000139  00000-0  00000-0 0  9994
2 37779   0.0435 295.3393 0003034 227.9144  47.0201  1.00274848 22316
CHINASAT 1A (ZX 1A)     
1 37804U 11047A   17247.45604672 -.00000351  00000-0  00000-0 0  9990
2 37804   0.0544 255.0930 0001354 339.8941  42.9882  1.00274256 21914
COSMOS 2473             
1 37806U 11048A   17247.09313449 -.00000122  00000-0  00000+0 0  9997
2 37806   0.0535 109.0552 0001480  52.4933 201.8858  1.00271967 21907
SES-2                   
1 37809U 11049A   17247.52545900 -.00000210  00000-0  00000-0 0  9997
2 37809   0.0528 299.1188 0002375 212.4065 294.4770  1.00272142 21857
ARABSAT-5C              
1 37810U 11049B   17247.46782126  .00000109  00000-0  00000-0 0  9991
2 37810   0.0628   2.0149 0002788 160.9160   9.2377  1.00271451 21890
EUTELSAT 7 WEST A       
1 37816U 11051A   17247.06643488 -.00000074  00000-0  00000+0 0  9994
2 37816   0.0748  42.0170 0005355 134.8283 183.1642  1.00272184 21808
QUETZSAT 1              
1 37826U 11054A   17247.39424359 -.00000255  00000-0  00000-0 0  9990
2 37826   0.0547 304.1627 0002906 198.4241 266.0380  1.00270630 17746
INTELSAT 18 (IS-18)     
1 37834U 11056A   17247.55761421  .00000039  00000-0  00000-0 0  9992
2 37834   0.0114 117.2379 0002200  45.5176 201.8603  1.00273737 21772
EUTELSAT 16A            
1 37836U 11057A   17247.46782126  .00000090  00000-0  00000-0 0  9997
2 37836   0.0673   8.5586 0004257 157.6789   1.9318  1.00271067 13839
VIASAT-1                
1 37843U 11059A   17247.51187480 -.00000037  00000-0  00000-0 0  9997
2 37843   0.0206 152.5175 0002799   7.6905 252.7815  1.00270395 22118
ASIASAT 7               
1 37933U 11069A   17247.58518324 -.00000348  00000-0  00000-0 0  9995
2 37933   0.0172 227.8784 0001789 261.5073 170.6908  1.00273521 12694
LUCH 5A                 
1 37951U 11074B   17247.48138369 -.00000060  00000-0  00000-0 0  9998
2 37951   1.5891 173.0006 0002134   3.4476 147.5762  1.00272781 21027
NIGCOMSAT 1R            
1 38014U 11077A   17247.52337559  .00000131  00000-0  00000-0 0  9997
2 38014   0.0228 103.8040 0001567  56.1339  54.8018  1.00273547 20795
FENGYUN 2F              
1 38049U 12002A   17247.58518324 -.00000368  00000-0  00000-0 0  9994
2 38049   1.8733  78.2698 0004286 207.7079  19.9175  1.00256752 20721
SES-4                   
1 38087U 12007A   17247.48240424 -.00000183  00000-0  00000-0 0  9998
2 38087   0.0088 100.9990 0002204  68.3385 326.0724  1.00268622 20107
BEIDOU G5               
1 38091U 12008A   17247.60462703  .00000043  00000-0  00000-0 0  9998
2 38091   2.3454  57.6133 0003226 202.0398   0.6007  1.00274535 20319
INTELSAT 22 (IS-22)     
1 38098U 12011A   17246.84650870 -.00000073  00000-0  00000-0 0  9992
2 38098   0.0217  57.1294 0002057 125.6280 177.2471  1.00272269 19666
APSTAR 7                
1 38107U 12013A   17247.56537997 -.00000116  00000-0  00000-0 0  9997
2 38107   0.0289  92.9997 0002530  70.4966 100.4235  1.00272581 20000
YAHSAT 1B               
1 38245U 12016A   17246.91441771  .00000112  00000-0  00000-0 0  9990
2 38245   0.0183 166.3699 0001622 351.6290 202.0081  1.00271319 13464
JCSAT-13                
1 38331U 12023A   17246.70275651 -.00000371  00000-0  00000-0 0  9991
2 38331   0.0218 135.6521 0002151  33.1833 191.1694  1.00269914 19355
VINASAT-2               
1 38332U 12023B   17247.57549323 -.00000343  00000-0  00000-0 0  9997
2 38332   0.0428 298.6659 0002025 214.1392 170.1059  1.00272435 14496
NIMIQ 6                 
1 38342U 12026A   17247.29864172 -.00000187  00000-0  00000-0 0  9998
2 38342   0.0591 289.1252 0002936 233.5280 197.3629  1.00271663 18269
CHINASAT 2A (ZX 2A)     
1 38352U 12028A   17247.49642907 -.00000307  00000-0  00000-0 0  9997
2 38352   0.0415 263.6513 0002301  53.2691 303.8554  1.00271108 19212
INTELSAT 19 (IS-19)     
1 38356U 12030A   17246.58637701 -.00000071  00000-0  00000-0 0  9997
2 38356   0.0015 183.0432 0002843 341.1250 195.8408  1.00270364 18307
ECHOSTAR 17             
1 38551U 12035A   17247.34293587 -.00000089  00000-0  00000-0 0  9993
2 38551   0.0129 148.1507 0002102  16.3233 195.5388  1.00272567 18968
METEOSAT-10 (MSG-3)     
1 38552U 12035B   17247.04452044 -.00000012  00000-0  00000-0 0  9992
2 38552   0.8381   1.8725 0002357 151.7020 206.4445  1.00281480 19055
SES-5                   
1 38652U 12036A   17247.38382687  .00000020  00000-0  00000-0 0  9994
2 38652   0.0495 271.2889 0002071 243.9798 331.5887  1.00271763 12345
TIANLIAN 1-03           
1 38730U 12040A   17247.01697390  .00000058  00000-0  00000-0 0  9997
2 38730   0.1039 256.7710 0004601 262.1769 201.0767  1.00274269 16559
